{"type": "FeatureCollection", "features": [ {"type": "Feature", "properties": {"norad_id": 65942, "name": "BOTAN", "group": "stations", "lat": -22.862082336128417, "lon": 30.674169765137265, "alt_km": 387.97030480675494, "timestamp": "2025-12-02T10:50:46.070958+00:00", "meta": {"OBJECT_NAME": "BOTAN", "OBJECT_ID": "1998-067XP", "EPOCH": "2025-12-01T00:07:46.260192", "MEAN_MOTION": 15.5994409, "ECCENTRICITY": 0.00045874, "INCLINATION": 51.6292, "RA_OF_ASC_NODE": 198.4381, "ARG_OF_PERICENTER": 161.3348, "MEAN_ANOMALY": 198.7814, "EPHEMERIS_TYPE": 0, "CLASSIFICATION_TYPE": "U", "NORAD_CAT_ID": 65942, "ELEMENT_SET_NO": 999, "REV_AT_EPOCH": 803, "BSTAR": 0.0010535817, "MEAN_MOTION_DOT": 0.00087116, "MEAN_MOTION_DDOT": 0}, "tle": {"line1": "1 65942U 98067XP  25335.00539653  .00087116  00000+0  10536-2 0  9994", "line2": "2 65942  51.6292 198.4381 0004587 161.3348 198.7814 15.59944090  8032"}}, "geometry": {"type": "Point", "coordinates": [30.674169765137265, -22.862082336128417]}}, {"type": "Feature", "properties": {"norad_id": 65943, "name": "E-KAGAKU-1", "group": "stations", "lat": -6.5030361325813635, "lon": -173.56849220822411, "alt_km": 398.2867482633328, "timestamp": "2025-12-02T10:50:46.070969+00:00", "meta": {"OBJECT_NAME": "E-KAGAKU-1", "OBJECT_ID": "1998-067XQ", "EPOCH": "2025-12-01T01:00:17.648352", "MEAN_MOTION": 15.57460747, "ECCENTRICITY": 0.00037303, "INCLINATION": 51.6301, "RA_OF_ASC_NODE": 198.6831, "ARG_OF_PERICENTER": 140.2253, "MEAN_ANOMALY": 219.9013, "EPHEMERIS_TYPE": 0, "CLASSIFICATION_TYPE": "U", "NORAD_CAT_ID": 65943, "ELEMENT_SET_NO": 999, "REV_AT_EPOCH": 803, "BSTAR": 0.0008573363, "MEAN_MOTION_DOT": 0.00064224, "MEAN_MOTION_DDOT": 0}, "tle": {"line1": "1 65943U 98067XQ  25335.04187093  .00064224  00000+0  85734-3 0  9994", "line2": "2 65943  51.6301 198.6831 0003730 140.2253 219.9013 15.57460747  8033"}}, "geometry": {"type": "Point", "coordinates": [-173.56849220822411, -6.5030361325813635]}}, {"type": "Feature", "properties": {"norad_id": 66052, "name": "HRC MONOBLOCK CAMERA", "group": "stations", "lat": 17.478090512203355, "lon": -1.6830839721333706, "alt_km": 402.82210958781343, "timestamp": "2025-12-02T10:50:46.070982+00:00", "meta": {"OBJECT_NAME": "HRC MONOBLOCK CAMERA", "OBJECT_ID": "1998-067XR", "EPOCH": "2025-12-01T21:49:03.450144", "MEAN_MOTION": 15.53098539, "ECCENTRICITY": 0.0004502, "INCLINATION": 51.6296, "RA_OF_ASC_NODE": 195.4677, "ARG_OF_PERICENTER": 140.566, "MEAN_ANOMALY": 219.5658, "EPHEMERIS_TYPE": 0, "CLASSIFICATION_TYPE": "U", "NORAD_CAT_ID": 66052, "ELEMENT_SET_NO": 999, "REV_AT_EPOCH": 715, "BSTAR": 0.00057466, "MEAN_MOTION_DOT": 0.00036347, "MEAN_MOTION_DDOT": 0}, "tle": {"line1": "1 66052U 98067XR  25335.90906771  .00036347  00000+0  57466-3 0  9999", "line2": "2 66052  51.6296 195.4677 0004502 140.5660 219.5658 15.53098539  7159"}}, "geometry": {"type": "Point", "coordinates": [-1.6830839721333706, 17.478090512203355]}}, {"type": "Feature", "properties": {"norad_id": 66174, "name": "HTV-X1", "group": "stations", "lat": -21.20879598130756, "lon": 31.31402709745876, "alt_km": 419.5509808620691, "timestamp": "2025-12-02T10:50:46.071018+00:00", "meta": {"OBJECT_NAME": "HTV-X1", "OBJECT_ID": "2025-241A", "EPOCH": "2025-12-01T13:49:44.445504", "MEAN_MOTION": 15.49226524, "ECCENTRICITY": 0.00036473, "INCLINATION": 51.6309, "RA_OF_ASC_NODE": 197.7449, "ARG_OF_PERICENTER": 190.9481, "MEAN_ANOMALY": 169.1428, "EPHEMERIS_TYPE": 0, "CLASSIFICATION_TYPE": "U", "NORAD_CAT_ID": 66174, "ELEMENT_SET_NO": 999, "REV_AT_EPOCH": 51, "BSTAR": 0.00016365535, "MEAN_MOTION_DOT": 8.648e-05, "MEAN_MOTION_DDOT": 0}, "tle": {"line1": "1 66174U 25241A   25335.57620886  .00008648  00000+0  16366-3 0  9998", "line2": "2 66174  51.6309 197.7449 0003647 190.9481 169.1428 15.49226524   510"}}, "geometry": {"type": "Point", "coordinates": [31.31402709745876, -21.20879598130756]}}, {"type": "Feature", "properties": {"norad_id": 66515, "name": "SZ-21 MODULE", "group": "stations", "lat": 40.54806659657745, "lon": 154.34761092521774, "alt_km": 377.9753477104232, "timestamp": "2025-12-02T10:50:46.071030+00:00", "meta": {"OBJECT_NAME": "SZ-21 MODULE", "OBJECT_ID": "2025-246C", "EPOCH": "2025-12-01T23:45:55.979136", "MEAN_MOTION": 15.61701927, "ECCENTRICITY": 0.0005672, "INCLINATION": 41.4766, "RA_OF_ASC_NODE": 81.5812, "ARG_OF_PERICENTER": 196.2945, "MEAN_ANOMALY": 163.7713, "EPHEMERIS_TYPE": 0, "CLASSIFICATION_TYPE": "U", "NORAD_CAT_ID": 66515, "ELEMENT_SET_NO": 999, "REV_AT_EPOCH": 276, "BSTAR": 0.00033718, "MEAN_MOTION_DOT": 0.00029734, "MEAN_MOTION_DDOT": 0}, "tle": {"line1": "1 66515U 25246C   25335.99023124  .00029734  00000+0  33718-3 0  9999", "line2": "2 66515  41.4766  81.5812 0005672 196.2945 163.7713 15.61701927  2766"}}, "geometry": {"type": "Point", "coordinates": [154.34761092521774, 40.54806659657745]}}, {"type": "Feature", "properties": {"norad_id": 66645, "name": "SHENZHOU-22", "group": "stations", "lat": -37.90261180308951, "lon": 17.290872629965808, "alt_km": 388.4133036258054, "timestamp": "2025-12-02T10:50:46.071043+00:00", "meta": {"OBJECT_NAME": "SHENZHOU-22", "OBJECT_ID": "2025-272A", "EPOCH": "2025-12-01T15:08:36.996864", "MEAN_MOTION": 15.5848082, "ECCENTRICITY": 0.00103969, "INCLINATION": 41.4671, "RA_OF_ASC_NODE": 84.1132, "ARG_OF_PERICENTER": 308.0304, "MEAN_ANOMALY": 51.9595, "EPHEMERIS_TYPE": 0, "CLASSIFICATION_TYPE": "U", "NORAD_CAT_ID": 66645, "ELEMENT_SET_NO": 999, "REV_AT_EPOCH": 26230, "BSTAR": 0.00025188161, "MEAN_MOTION_DOT": 0.00019534, "MEAN_MOTION_DDOT": 0}, "tle": {"line1": "1 66645U 25272A   25335.63098376  .00019534  00000+0  25188-3 0  9993", "line2": "2 66645  41.4671  84.1132 0010396 308.0304  51.9595 15.58480820262306"}}, "geometry": {"type": "Point", "coordinates": [17.290872629965808, -37.90261180308951]}}, {"type": "Feature", "properties": {"norad_id": 66646, "name": "CZ-2F R/B", "group": "stations", "lat": 24.374558212857, "lon": 106.92765497498144, "alt_km": 304.5887006674802, "timestamp": "2025-12-02T10:50:46.071054+00:00", "meta": {"OBJECT_NAME": "CZ-2F R/B", "OBJECT_ID": "2025-272B", "EPOCH": "2025-11-26T11:17:54.506400", "MEAN_MOTION": 16.01945612, "ECCENTRICITY": 0.01210796, "INCLINATION": 41.4431, "RA_OF_ASC_NODE": 114.9009, "ARG_OF_PERICENTER": 133.7676, "MEAN_ANOMALY": 227.3272, "EPHEMERIS_TYPE": 0, "CLASSIFICATION_TYPE": "U", "NORAD_CAT_ID": 66646, "ELEMENT_SET_NO": 999, "REV_AT_EPOCH": 21, "BSTAR": 0.00029319366, "MEAN_MOTION_DOT": 0.00449059, "MEAN_MOTION_DDOT": 7.567612e-06}, "tle": {"line1": "1 66646U 25272B   25330.47076975  .00449059  75676-5  29319-3 0  9998", "line2": "2 66646  41.4431 114.9009 0121079 133.7676 227.3272 16.01945612   217"}}, "geometry": {"type": "Point", "coordinates": [106.92765497498144, 24.374558212857]}}, {"type": "Feature", "properties": {"norad_id": 66664, "name": "SOYUZ-MS 28", "group": "stations", "lat": -21.213463053306192, "lon": 31.31931880863518, "alt_km": 419.55153360351505, "timestamp": "2025-12-02T10:50:46.071065+00:00", "meta": {"OBJECT_NAME": "SOYUZ-MS 28", "OBJECT_ID": "2025-275A", "EPOCH": "2025-12-01T21:34:10.812000", "MEAN_MOTION": 15.49234272, "ECCENTRICITY": 0.0003628, "INCLINATION": 51.6307, "RA_OF_ASC_NODE": 196.1486, "ARG_OF_PERICENTER": 192.4733, "MEAN_ANOMALY": 167.6166, "EPHEMERIS_TYPE": 0, "CLASSIFICATION_TYPE": "U", "NORAD_CAT_ID": 66664, "ELEMENT_SET_NO": 999, "REV_AT_EPOCH": 76, "BSTAR": 0.0001829, "MEAN_MOTION_DOT": 9.722e-05, "MEAN_MOTION_DDOT": 0}, "tle": {"line1": "1 66664U 25275A   25335.89873625  .00009722  00000+0  18290-3 0  9997", "line2": "2 66664  51.6307 196.1486 0003628 192.4733 167.6166 15.49234272   760"}}, "geometry": {"type": "Point", "coordinates": [31.31931880863518, -21.213463053306192]}}]}